NORAD_CAT_ID,OBJECT_NAME,OBJECT_TYPE,EPOCH,MEAN_MOTION,ECCENTRICITY,INCLINATION,RA_OF_ASC_NODE,ARG_OF_PERICENTER,MEAN_ANOMALY,BSTAR,MEAN_MOTION_DOT,MEAN_MOTION_DDOT,TLE_LINE0,TLE_LINE1,TLE_LINE2,SEMIMAJOR_AXIS,PERIOD,APOGEE,PERIGEE,DECAYED
52114.0,STARLINK-3737,PAYLOAD,2024-01-04 00:13:41,15.08839146,0.0001601,53.2164,51.068,88.7446,271.3729,6.1262e-05,6.87e-06,0.0,0 STARLINK-3737,1 52114U 22029AC  24004.00950888  .00000687  00000-0  61262-4 0  9998,2 52114  53.2164  51.0680 0001601  88.7446 271.3729 15.08839146100671,6917.883,95.438,540.856,538.64,0.0
52114.0,STARLINK-3737,PAYLOAD,2024-01-04 12:56:46,15.08848717,0.0001437,53.2164,48.6872,87.618,272.4977,0.00025754,3.814e-05,0.0,0 STARLINK-3737,1 52114U 22029AC  24004.53942451  .00003814  00000-0  25754-3 0  9993,2 52114  53.2164  48.6872 0001437  87.6180 272.4977 15.08848717100745,6917.854,95.437,540.713,538.725,0.0
52114.0,STARLINK-3737,PAYLOAD,2024-01-05 03:15:15,15.08836486,0.0001704,53.2151,46.0087,94.8238,265.2949,0.00017971,2.573e-05,0.0,0 STARLINK-3737,1 52114U 22029AC  24005.13559079  .00002573  00000-0  17971-3 0  9993,2 52114  53.2151  46.0087 0001704  94.8238 265.2949 15.08836486100842,6917.891,95.438,540.935,538.577,0.0
52114.0,STARLINK-3737,PAYLOAD,2024-01-05 08:01:24,15.08836912,0.0001477,53.2158,45.116,90.6476,269.4685,0.00022039,3.221e-05,0.0,0 STARLINK-3737,1 52114U 22029AC  24005.33431079  .00003221  00000-0  22039-3 0  9996,2 52114  53.2158  45.1160 0001477  90.6476 269.4685 15.08836912100865,6917.89,95.438,540.777,538.733,0.0
52114.0,STARLINK-3737,PAYLOAD,2024-01-06 07:52:11,15.08843437,0.0001632,53.2162,40.6576,97.1852,262.9326,9.207e-05,1.178e-05,0.0,0 STARLINK-3737,1 52114U 22029AC  24006.32790748  .00001178  00000-0  92070-4 0  9999,2 52114  53.2162  40.6576 0001632  97.1852 262.9326 15.08843437101023,6917.87,95.437,540.864,538.606,0.0
52114.0,STARLINK-3737,PAYLOAD,2024-01-06 22:10:39,15.08837967,0.0001576,53.2165,37.9833,89.8572,270.2601,8.4623e-05,1.059e-05,0.0,0 STARLINK-3737,1 52114U 22029AC  24006.92407054  .00001059  00000-0  84623-4 0  9993,2 52114  53.2165  37.9833 0001576  89.8572 270.2601 15.08837967101114,6917.887,95.438,540.842,538.661,0.0
52114.0,STARLINK-3737,PAYLOAD,2024-01-07 10:53:44,15.08843807,0.0001652,53.2168,35.6043,99.8245,260.2933,0.00011027,1.468e-05,0.0,0 STARLINK-3737,1 52114U 22029AC  24007.45398771  .00001468  00000-0  11027-3 0  9998,2 52114  53.2168  35.6043 0001652  99.8245 260.2933 15.08843807101182,6917.869,95.437,540.877,538.591,0.0
52114.0,STARLINK-3737,PAYLOAD,2024-01-08 01:12:13,15.08837464,0.0001701,53.2166,32.927,110.4179,249.6996,3.2326e-05,2.26e-06,0.0,0 STARLINK-3737,1 52114U 22029AC  24008.05015200  .00000226  00000-0  32326-4 0  9995,2 52114  53.2166  32.9270 0001701 110.4179 249.6996 15.08837464101286,6917.888,95.438,540.93,538.576,0.0
52114.0,STARLINK-3737,PAYLOAD,2024-01-08 09:09:08,15.08841948,0.0001567,53.2173,31.4409,95.4983,264.6188,6.8996e-05,8.1e-06,0.0,0 STARLINK-3737,1 52114U 22029AC  24008.38135166  .00000810  00000-0  68996-4 0  9996,2 52114  53.2173  31.4409 0001567  95.4983 264.6188 15.08841948101324,6917.874,95.437,540.823,538.655,0.0
52114.0,STARLINK-3737,PAYLOAD,2024-01-09 07:24:32,15.08842073,0.0001547,53.2171,27.2775,92.3975,267.7195,9.9649e-05,1.298e-05,0.0,0 STARLINK-3737,1 52114U 22029AC  24009.30871251  .00001298  00000-0  99649-4 0  9991,2 52114  53.2171  27.2775 0001547  92.3975 267.7195 15.08842073101474,6917.874,95.437,540.809,538.669,0.0
52114.0,STARLINK-3737,PAYLOAD,2024-01-10 07:15:19,15.08848113,0.000156,53.2172,22.8171,90.6303,269.4868,0.0001477,2.064e-05,0.0,0 STARLINK-3737,1 52114U 22029AC  24010.30230769  .00002064  00000-0  14770-3 0  9999,2 52114  53.2172  22.8171 0001560  90.6303 269.4868 15.08848113101610,6917.856,95.437,540.8,538.641,0.0
52114.0,STARLINK-3737,PAYLOAD,2024-01-11 03:55:20,15.08842492,0.0001595,53.2161,18.9513,86.9751,273.1423,9.6897e-05,1.255e-05,0.0,0 STARLINK-3737,1 52114U 22029AC  24011.16343292  .00001255  00000-0  96897-4 0  9992,2 52114  53.2161  18.9513 0001595  86.9751 273.1423 15.08842492101755,6917.873,95.437,540.841,538.634,0.0
52114.0,STARLINK-3737,PAYLOAD,2024-01-11 10:16:52,15.08848012,0.0001695,53.2169,17.7603,105.0176,255.1004,0.00016059,2.269e-05,0.0,0 STARLINK-3737,1 52114U 22029AC  24011.42838793  .00002269  00000-0  16059-3 0  9993,2 52114  53.2169  17.7603 0001695 105.0176 255.1004 15.08848012101787,6917.856,95.437,540.893,538.548,0.0
52114.0,STARLINK-3737,PAYLOAD,2024-01-12 03:46:07,15.08830701,0.000184,53.2173,14.4827,115.8926,244.2256,0.00014437,2.01e-05,0.0,0 STARLINK-3737,1 52114U 22029AC  24012.15703680  .00002010  00000-0  14437-3 0  9992,2 52114  53.2173  14.4827 0001840 115.8926 244.2256 15.08830701101906,6917.909,95.438,541.047,538.501,0.0
52114.0,STARLINK-3737,PAYLOAD,2024-01-12 05:21:31,15.08827166,0.0001854,53.2188,14.1855,115.0351,245.0834,0.00020822,3.026e-05,0.0,0 STARLINK-3737,1 52114U 22029AC  24012.22327830  .00003026  00000-0  20822-3 0  9992,2 52114  53.2188  14.1855 0001854 115.0351 245.0834 15.08827166101901,6917.92,95.438,541.067,538.502,0.0
52114.0,STARLINK-3737,PAYLOAD,2024-01-13 08:23:04,15.08846116,0.0001732,53.2181,9.1397,100.7279,259.3909,0.00012908,1.767e-05,0.0,0 STARLINK-3737,1 52114U 22029AC  24013.34935393  .00001767  00000-0  12908-3 0  9991,2 52114  53.2181   9.1397 0001732 100.7279 259.3909 15.08846116102081,6917.862,95.437,540.925,538.529,0.0
52114.0,STARLINK-3737,PAYLOAD,2024-01-14 09:49:12,15.08867123,0.0001483,53.2173,4.379,102.5707,257.5451,0.00044447,6.798e-05,0.0,0 STARLINK-3737,1 52114U 22029AC  24014.40917648  .00006798  00000-0  44447-3 0  9994,2 52114  53.2173   4.3790 0001483 102.5707 257.5451 15.08867123102246,6917.797,95.436,540.688,538.637,0.0
52114.0,STARLINK-3737,PAYLOAD,2024-01-14 22:32:18,15.08850673,0.0002812,53.2166,2.0025,102.9026,257.228,5.14e-05,5.3e-06,0.0,0 STARLINK-3737,1 52114U 22029AC  24014.93910538  .00000530  00000-0  51400-4 0  9999,2 52114  53.2166   2.0025 0002812 102.9026 257.2280 15.08850673102316,6917.848,95.437,541.658,537.767,0.0
52114.0,STARLINK-3737,PAYLOAD,2024-01-15 03:18:29,15.08831011,0.0001448,53.2178,1.1103,74.36,285.7552,-0.00017796,-3.118e-05,0.0,0 STARLINK-3737,1 52114U 22029AC  24015.13783607 -.00003118  00000-0 -17796-3 0  9993,2 52114  53.2178   1.1103 0001448  74.3600 285.7552 15.08831011102357,6917.908,95.438,540.775,538.771,0.0
52114.0,STARLINK-3737,PAYLOAD,2024-01-15 08:04:37,15.0883847,0.0001286,53.2168,0.2175,100.955,259.1587,-0.00013687,-2.465e-05,0.0,0 STARLINK-3737,1 52114U 22029AC  24015.33654720 -.00002465  00000-0 -13687-3 0  9997,2 52114  53.2168   0.2175 0001286 100.9550 259.1587 15.08838470102387,6917.885,95.438,540.64,538.86,0.0
52114.0,STARLINK-3737,PAYLOAD,2024-01-16 03:09:16,15.08831245,0.0001281,53.2167,356.6502,107.2002,252.9131,-2.7082e-05,-7.19e-06,0.0,0 STARLINK-3737,1 52114U 22029AC  24016.13143795 -.00000719  00000-0 -27082-4 0  9996,2 52114  53.2167 356.6502 0001281 107.2002 252.9131 15.08831245102508,6917.907,95.438,540.658,538.886,0.0
52114.0,STARLINK-3737,PAYLOAD,2024-01-16 07:55:25,15.088389,0.0001462,53.2165,355.7538,84.2407,275.8752,0.00018696,2.689e-05,0.0,0 STARLINK-3737,1 52114U 22029AC  24016.33015666  .00002689  00000-0  18696-3 0  9999,2 52114  53.2165 355.7538 0001462  84.2407 275.8752 15.08838900102529,6917.884,95.438,540.76,538.737,0.0
52114.0,STARLINK-3737,PAYLOAD,2024-01-16 22:13:54,15.08838136,0.000151,53.216,353.0796,111.422,248.6933,0.00049039,7.525e-05,0.0,0 STARLINK-3737,1 52114U 22029AC  24016.92632504  .00007525  00000-0  49039-3 0  9999,2 52114  53.2160 353.0796 0001510 111.4220 248.6933 15.08838136102611,6917.886,95.438,540.796,538.706,0.0
52114.0,STARLINK-3737,PAYLOAD,2024-01-17 04:35:26,15.0885653,0.0001316,53.2167,351.8908,104.0821,256.0318,0.0012526,0.00019712,0.0,0 STARLINK-3737,1 52114U 22029AC  24017.19128268  .00019712  00000-0  12526-2 0  9997,2 52114  53.2167 351.8908 0001316 104.0821 256.0318 15.08856530102650,6917.83,95.437,540.605,538.784,0.0
52114.0,STARLINK-3737,PAYLOAD,2024-01-18 04:26:14,15.08844836,0.00014,53.2171,347.4275,76.3382,283.7766,0.00054301,8.366e-05,0.0,0 STARLINK-3737,1 52114U 22029AC  24018.18488639  .00008366  00000-0  54301-3 0  9999,2 52114  53.2171 347.4275 0001400  76.3382 283.7766 15.08844836102818,6917.866,95.437,540.699,538.762,0.0
52114.0,STARLINK-3737,PAYLOAD,2024-01-18 21:55:28,15.08842888,0.0001428,53.2169,344.1597,75.526,284.5891,0.00032213,4.843e-05,0.0,0 STARLINK-3737,1 52114U 22029AC  24018.91352748  .00004843  00000-0  32213-3 0  9995,2 52114  53.2169 344.1597 0001428  75.5260 284.5891 15.08842888102916,6917.872,95.437,540.724,538.749,0.0
52114.0,STARLINK-3737,PAYLOAD,2024-01-19 02:41:37,15.08849548,0.0001298,53.2172,343.2688,89.3535,270.7606,0.00023013,3.377e-05,0.0,0 STARLINK-3737,1 52114U 22029AC  24019.11224361  .00003377  00000-0  23013-3 0  9996,2 52114  53.2172 343.2688 0001298  89.3535 270.7606 15.08849548102959,6917.851,95.437,540.614,538.818,0.0
52114.0,STARLINK-3737,PAYLOAD,2024-01-19 07:27:46,15.08855984,0.0001322,53.2173,342.3742,97.6806,262.4336,0.00034968,5.284e-05,0.0,0 STARLINK-3737,1 52114U 22029AC  24019.31095994  .00005284  00000-0  34968-3 0  9996,2 52114  53.2173 342.3742 0001322  97.6806 262.4336 15.08855984102973,6917.832,95.437,540.611,538.782,0.0
52114.0,STARLINK-3737,PAYLOAD,2024-01-19 21:46:15,15.08842986,0.0001341,53.2173,339.6928,95.0701,265.0444,0.00011734,1.58e-05,0.0,0 STARLINK-3737,1 52114U 22029AC  24019.90712413  .00001580  00000-0  11734-3 0  9994,2 52114  53.2173 339.6928 0001341  95.0701 265.0444 15.08842986103063,6917.871,95.437,540.664,538.809,0.0
52114.0,STARLINK-3737,PAYLOAD,2024-01-20 04:07:47,15.08845477,0.0001525,53.2175,338.5031,102.0678,258.0485,0.00015738,2.218e-05,0.0,0 STARLINK-3737,1 52114U 22029AC  24020.17208276  .00002218  00000-0  15738-3 0  9999,2 52114  53.2175 338.5031 0001525 102.0678 258.0485 15.08845477103115,6917.864,95.437,540.784,538.674,0.0
